LEMUR-2-ALISIA          
1 62706U 25009DB  26115.71823943  .00008894  00000+0  68424-3 0  9994
2 62706  97.6911 198.2730 0003170  46.5819 313.5668 15.01918288 92286
LEMUR-2-ROUNDTRIPPER    
1 62711U 25009DG  26115.77793028  .00009574  00000+0  71675-3 0  9994
2 62711  97.7235 198.5699 0002991 320.8357  39.2651 15.02935388 69755
LEMUR-2-MYNAMEISJEFF    
1 62712U 25009DH  26115.77638647  .00009261  00000+0  69359-3 0  9999
2 62712  97.7284 198.9175 0002172  18.5634 341.5670 15.02931999 69757
LEMUR-2-LEIA-PHILIP     
1 63246U 25052AN  26115.67398756  .00002425  00000+0  21480-3 0  9991
2 63246  97.6898   8.4997 0005306  54.9031 305.2688 14.97165562 60816
LEMUR-2-LIA-MARTIN      
1 63248U 25052AQ  26115.69032394  .00004566  00000+0  39845-3 0  9990
2 63248  97.6941   8.9252 0003632  25.5851 334.5550 14.97316644 60823
LEMUR-2-DELOITTE-1      
1 63259U 25052BB  26115.66129102  .00004201  00000+0  36803-3 0  9990
2 63259  97.6985   9.2199 0000948  59.2420 300.8895 14.97216476 60831
LEMUR-2-EMERSONROSE     
1 63261U 25052BD  26115.68824212  .00003450  00000+0  29195-3 0  9990
2 63261  97.6946   9.6997 0000671 204.2158 155.9033 14.98680885 60871
LEMUR-2-MARACHE-FRAN    
1 63262U 25052BE  26115.69527275  .00005439  00000+0  44779-3 0  9995
2 63262  97.6925   9.9501 0002724 190.8958 169.2206 14.99495341 60896
LEMUR-2-THEFALCONER     
1 63264U 25052BG  26115.68042328  .00003568  00000+0  31490-3 0  9994
2 63264  97.6917   8.9152 0002301 137.1105 223.0296 14.97013264 60839
LEMUR-2-UNTITLED-SC     
1 63351U 25061A   26115.85126102  .00004267  00000+0  24357-3 0  9994
2 63351  97.5608  91.6215 0020857  86.0351 274.3264 15.13091508 59672
LEMUR-2-ESPERANZA       
1 63352U 25061B   26115.83156190  .00004325  00000+0  24629-3 0  9990
2 63352  97.5614  91.6835 0020409  85.5856 274.7706 15.13177910 59672
LEMUR-2-KREMPEL-BRO2    
1 63353U 25061C   26115.87341215  .00005151  00000+0  28903-3 0  9996
2 63353  97.5662  92.1917 0021276  78.6429 281.7191 15.13603500 59692
LEMUR-2-THERMORAPTOR    
1 63354U 25061D   26115.65972456  .00004156  00000+0  23356-3 0  9991
2 63354  97.5668  92.0455 0021073  78.4446 281.9149 15.13669753 59661
LEMUR-2-NEUROSPICY      
1 63355U 25061E   26115.83363306  .00004666  00000+0  26115-3 0  9992
2 63355  97.5593  91.8852 0018895  81.3083 279.0288 15.13785715 59697
LEMUR-2-TILLINFINITY    
1 63356U 25061F   26115.82313987  .00005365  00000+0  29468-3 0  9993
2 63356  97.5580  92.1286 0019985  70.5274 289.8115 15.14368772 59714
LEMUR-2-KREMPEL-BRO1    
1 63357U 25061G   26115.78992611  .00004598  00000+0  25438-3 0  9996
2 63357  97.5582  92.0261 0020695  71.7227 288.6254 15.14183103 59703
